NORAD_CAT_ID,OBJECT_NAME,OBJECT_TYPE,EPOCH,MEAN_MOTION,ECCENTRICITY,INCLINATION,RA_OF_ASC_NODE,ARG_OF_PERICENTER,MEAN_ANOMALY,BSTAR,MEAN_MOTION_DOT,MEAN_MOTION_DDOT,TLE_LINE0,TLE_LINE1,TLE_LINE2,SEMIMAJOR_AXIS,PERIOD,APOGEE,PERIGEE,DECAYED
52557.0,STARLINK-3943,PAYLOAD,2022-08-10 14:00:01,15.08835448,0.0001415,53.2149,236.9333,55.7928,202.4053,-1.1614e-06,-3.06e-06,0.0,0 STARLINK-3943,1 52557U 22051AA  22222.58334491 -.00000306  00000-0 -11614-5 0  9990,2 52557  53.2149 236.9333 0001415  55.7928 202.4053 15.08835448  1302,6917.894,95.438,540.738,538.78,0.0
52557.0,STARLINK-3943,PAYLOAD,2022-08-10 17:07:18,15.08850552,0.0001347,53.215,236.3485,59.732,185.3598,-0.002286,-0.00036496,0.0,0 STARLINK-3943,1 52557U 22051AA  22222.71341435 -.00036496  00000-0 -22860-2 0  9992,2 52557  53.2150 236.3485 0001347  59.7320 185.3598 15.08850552 14210,6917.848000000001,95.437,540.645,538.781,0.0
52557.0,STARLINK-3943,PAYLOAD,2022-08-10 22:00:00,15.08812475,0.0001286999999999,53.2149,235.4352,65.3326,204.463,0.0027256999999999,0.00043326,0.0,0 STARLINK-3943,1 52557U 22051AA  22222.91667824  .00043326  00000-0  27257-2 0  9990,2 52557  53.2149 235.4352 0001287  65.3326 204.4630 15.08812475  1301,6917.965,95.439,540.72,538.939,0.0
52557.0,STARLINK-3943,PAYLOAD,2022-08-11 06:00:02,15.08848729,0.0001391,53.2149,233.9401,61.0146,220.4271,-0.0014245,-0.00022893,0.0,0 STARLINK-3943,1 52557U 22051AA  22223.25002315 -.00022893  00000-0 -14245-2 0  9997,2 52557  53.2149 233.9401 0001391  61.0146 220.4271 15.08848729 14290,6917.854,95.437,540.681,538.756,0.0
52557.0,STARLINK-3943,PAYLOAD,2022-08-11 14:00:01,15.08846675,0.0001408,53.2152,232.4439,56.706,236.2638,-0.00069737,-0.00011371,0.0,0 STARLINK-3943,1 52557U 22051AA  22223.58334491 -.00011371  00000-0 -69737-3 0  9992,2 52557  53.2152 232.4439 0001408  56.7060 236.2638 15.08846675  1302,6917.86,95.437,540.6990000000002,538.751,0.0
52557.0,STARLINK-3943,PAYLOAD,2022-08-11 22:00:00,15.08818601,0.0001307,53.2162,230.9458,66.9492,237.627,0.0027901999999999,0.00044372,0.0,0 STARLINK-3943,1 52557U 22051AA  22223.91667824  .00044372  00000-0  27902-2 0  9990,2 52557  53.2162 230.9458 0001307  66.9492 237.6270 15.08818601 14395,6917.946,95.439,540.715,538.9069999999998,0.0
52557.0,STARLINK-3943,PAYLOAD,2022-08-12 14:00:01,15.08844396,0.0001612,53.216,227.9544,61.1426,266.6317,-0.00073477,-0.00011964,0.0,0 STARLINK-3943,1 52557U 22051AA  22224.58334491 -.00011964  00000-0 -73477-3 0  9997,2 52557  53.2160 227.9544 0001612  61.1426 266.6317 15.08844396  1309,6917.8669999999975,95.437,540.847,538.617,0.0
52557.0,STARLINK-3943,PAYLOAD,2022-08-12 20:00:01,15.08739653,0.000164,53.2172,226.838,60.5326,186.0134,0.0070905,0.00114076,0.0,0 STARLINK-3943,1 52557U 22051AA  22224.83335648  .00114076  00000-0  70905-2 0  9998,2 52557  53.2172 226.8380 0001640  60.5326 186.0134 15.08739653 14531,6918.187,95.444,541.187,538.918,0.0
52557.0,STARLINK-3943,PAYLOAD,2022-08-12 22:00:01,15.08731395,0.0001647,53.2171,226.4645,63.1457,276.2831,0.0098431,0.00159458,0.0,0 STARLINK-3943,1 52557U 22051AA  22224.91668981  .00159458  00000-0  98431-2 0  9993,2 52557  53.2171 226.4645 0001647  63.1457 276.2831 15.08731395  1303,6918.212,95.444,541.217,538.938,0.0
52557.0,STARLINK-3943,PAYLOAD,2022-08-13 14:00:01,15.08848753,0.0001661,53.2161,223.4652,61.1699,301.3565,-0.0014688,-0.00023594,0.0,0 STARLINK-3943,1 52557U 22051AA  22225.58334491 -.00023594  00000-0 -14688-2 0  9998,2 52557  53.2161 223.4652 0001661  61.1699 301.3565 15.08848753  1300,6917.854,95.437,540.868,538.57,0.0
52557.0,STARLINK-3943,PAYLOAD,2022-08-13 22:00:00,15.08822543,0.0001585,53.2163,221.9674,69.2787,304.8482,0.0019678,0.00031153,0.0,0 STARLINK-3943,1 52557U 22051AA  22225.91667824  .00031153  00000-0  19678-2 0  9996,2 52557  53.2163 221.9674 0001585  69.2787 304.8482 15.08822543  1306,6917.934,95.439,540.895,538.702,0.0
52557.0,STARLINK-3943,PAYLOAD,2022-08-14 14:00:01,15.08833637,0.0001629,53.2166,218.9759,59.2271,338.0639,-0.0015677,-0.00025147,0.0,0 STARLINK-3943,1 52557U 22051AA  22226.58334491 -.00025147  00000-0 -15677-2 0  9994,2 52557  53.2166 218.9759 0001629  59.2271 338.0639 15.08833637 14791,6917.9,95.438,540.8919999999998,538.638,0.0
52557.0,STARLINK-3943,PAYLOAD,2022-08-14 22:00:00,15.08804354,0.0001582,53.2169,217.4782,67.3739,341.4953,0.0025588,0.00040631,0.0,0 STARLINK-3943,1 52557U 22051AA  22226.91667824  .00040631  00000-0  25588-2 0  9995,2 52557  53.2169 217.4782 0001582  67.3739 341.4953 15.08804354  1305,6917.989000000001,95.44,540.9490000000002,538.76,0.0
52557.0,STARLINK-3943,PAYLOAD,2022-08-15 06:00:00,15.08831281,0.0001742,53.2171,215.9836,61.4145,359.0263,-0.00094556,-0.00015302,0.0,0 STARLINK-3943,1 52557U 22051AA  22227.25001157 -.00015302  00000-0 -94556-3 0  9995,2 52557  53.2171 215.9836 0001742  61.4145 359.0263 15.08831281 14891,6917.906999999997,95.438,540.977,538.567,0.0
52557.0,STARLINK-3943,PAYLOAD,2022-08-15 14:00:01,15.08843944,0.000171,53.2173,214.4868,59.6268,12.3862,-0.0017410999999999,-0.00027894,0.0,0 STARLINK-3943,1 52557U 22051AA  22227.58334491 -.00027894  00000-0 -17411-2 0  9994,2 52557  53.2173 214.4868 0001710  59.6268  12.3862 15.08843944  1307,6917.868,95.437,540.9159999999998,538.55,0.0
52557.0,STARLINK-3943,PAYLOAD,2022-08-15 22:00:00,15.08820933,0.0001673,53.2177,212.9892,67.2282,16.3772,0.0022296,0.00035356,0.0,0 STARLINK-3943,1 52557U 22051AA  22227.91667824  .00035356  00000-0  22296-2 0  9997,2 52557  53.2177 212.9892 0001673  67.2282  16.3772 15.08820933  1307,6917.939,95.439,540.961,538.646,0.0
52557.0,STARLINK-3943,PAYLOAD,2022-08-16 00:00:00,15.08841147,0.0001703,53.218,212.6155,67.4103,109.0849,0.00018325,2.63e-05,0.0,0 STARLINK-3943,1 52557U 22051AA  22228.00001157  .00002630  00000-0  18325-3 0  9997,2 52557  53.2180 212.6155 0001703  67.4103 109.0849 15.08841147 15005,6917.877,95.437,540.92,538.564,0.0
52557.0,STARLINK-3943,PAYLOAD,2022-08-16 14:00:01,15.08859119,0.0001773,53.2179,209.9979,60.9537,45.8285,-0.0017379,-0.00027855,0.0,0 STARLINK-3943,1 52557U 22051AA  22228.58334491 -.00027855  00000-0 -17379-2 0  9995,2 52557  53.2179 209.9979 0001773  60.9537  45.8285 15.08859119  1309,6917.821999999999,95.436,540.913,538.46,0.0
52557.0,STARLINK-3943,PAYLOAD,2022-08-16 22:00:00,15.08838536,0.0001730999999999,53.2183,208.5003,68.2678,50.1198,0.0018308,0.00028968,0.0,0 STARLINK-3943,1 52557U 22051AA  22228.91667824  .00028968  00000-0  18308-2 0  9998,2 52557  53.2183 208.5003 0001731  68.2678  50.1198 15.08838536  1300,6917.885,95.438,540.947,538.552,0.0
52557.0,STARLINK-3943,PAYLOAD,2022-08-17 06:00:02,15.08852249,0.0001841,53.2182,207.0058,61.7812,68.277,-0.0002401999999999,-4.11e-05,0.0,0 STARLINK-3943,1 52557U 22051AA  22229.25002315 -.00004110  00000-0 -24020-3 0  9998,2 52557  53.2182 207.0058 0001841  61.7812  68.2770 15.08852249 15198,6917.843000000003,95.437,540.982,538.434,0.0
52557.0,STARLINK-3943,PAYLOAD,2022-08-17 16:00:00,15.08855891,0.0001653,53.2183,205.1343,63.5651,170.9427,-0.0030815,-0.00049018,0.0,0 STARLINK-3943,1 52557U 22051AA  22229.66667824 -.00049018  00000-0 -30815-2 0  9999,2 52557  53.2183 205.1343 0001653  63.5651 170.9427 15.08855891 15261,6917.831999999999,95.437,540.84,538.553,0.0
52557.0,STARLINK-3943,PAYLOAD,2022-08-18 08:00:01,15.08821641,0.0001751,53.2182,202.1433,59.6366,198.0664,0.0028333,0.0004506999999999,0.0,0 STARLINK-3943,1 52557U 22051AA  22230.33334491  .00045070  00000-0  28333-2 0  9990,2 52557  53.2182 202.1433 0001751  59.6366 198.0664 15.08821641 15366,6917.937,95.439,541.013,538.59,0.0
52557.0,STARLINK-3943,PAYLOAD,2022-08-18 14:00:01,15.08862942,0.0001653,53.2179,201.02,63.2489,113.1416,-0.0016424,-0.00026348,0.0,0 STARLINK-3943,1 52557U 22051AA  22230.58334491 -.00026348  00000-0 -16424-2 0  9994,2 52557  53.2179 201.0200 0001653  63.2489 113.1416 15.08862942  1301,6917.81,95.436,540.819,538.5319999999998,0.0
52557.0,STARLINK-3943,PAYLOAD,2022-08-18 22:00:00,15.08853308,0.0001621,53.2181,199.523,71.2187,116.7804,0.0014159,0.00022326,0.0,0 STARLINK-3943,1 52557U 22051AA  22230.91667824  .00022326  00000-0  14159-2 0  9993,2 52557  53.2181 199.5230 0001621  71.2187 116.7804 15.08853308  1303,6917.84,95.437,540.826,538.5830000000002,0.0
52557.0,STARLINK-3943,PAYLOAD,2022-08-19 14:00:01,15.08849536,0.0001465999999999,53.2173,196.531,62.518,148.7037,-0.0036387,-0.00057749,0.0,0 STARLINK-3943,1 52557U 22051AA  22231.58334491 -.00057749  00000-0 -36387-2 0  9994,2 52557  53.2173 196.5310 0001466  62.5180 148.7037 15.08849536  1304,6917.851,95.437,540.73,538.702,0.0
52557.0,STARLINK-3943,PAYLOAD,2022-08-19 16:00:00,15.08816608,0.0001422,53.2174,196.1566,64.3068,239.8186,-0.00045624,-7.537e-05,0.0,0 STARLINK-3943,1 52557U 22051AA  22231.66667824 -.00007537  00000-0 -45624-3 0  9997,2 52557  53.2174 196.1566 0001422  64.3068 239.8186 15.08816608 15565,6917.9519999999975,95.439,540.8009999999998,538.8330000000002,0.0
52557.0,STARLINK-3943,PAYLOAD,2022-08-19 22:00:00,15.08818354,0.0001428,53.2174,195.0343,69.2545,153.5402,0.0007744,0.00012051,0.0,0 STARLINK-3943,1 52557U 22051AA  22231.91667824  .00012051  00000-0  77440-3 0  9991,2 52557  53.2174 195.0343 0001428  69.2545 153.5402 15.08818354  1306,6917.946999999999,95.439,540.799,538.8240000000002,0.0
52557.0,STARLINK-3943,PAYLOAD,2022-08-20 14:00:01,15.08842533,0.0001467,53.2168,192.0422,63.232,182.7086,-0.0015287,-0.00024536,0.0,0 STARLINK-3943,1 52557U 22051AA  22232.58334491 -.00024536  00000-0 -15287-2 0  9999,2 52557  53.2168 192.0422 0001467  63.2320 182.7086 15.08842533  1300,6917.873000000001,95.437,540.752,538.7230000000002,0.0
52557.0,STARLINK-3943,PAYLOAD,2022-08-20 16:00:00,15.0882174,0.0001441999999999,53.2169,191.6678,66.0532,272.7909,0.0011612,0.00018232,0.0,0 STARLINK-3943,1 52557U 22051AA  22232.66667824  .00018232  00000-0  11612-2 0  9999,2 52557  53.2169 191.6678 0001442  66.0532 272.7909 15.08821740 15719,6917.936,95.439,540.799,538.804,0.0
